{
    "links": {
        "self": "http://www.neowsapp.com/rest/v1/neo/3989458?api_key=iIulBulltgU6a56xZRHN4H3l9WmuAYTsLGpBGhQ2"
    },
    "id": "3989458",
    "neo_reference_id": "3989458",
    "name": "(2020 CZ)",
    "designation": "2020 CZ",
    "nasa_jpl_url": "http://ssd.jpl.nasa.gov/sbdb.cgi?sstr=3989458",
    "absolute_magnitude_h": 29.311,
    "estimated_diameter": {
        "kilometers": {
            "estimated_diameter_min": 0.0036505221,
            "estimated_diameter_max": 0.0081628155
        },
        "meters": {
            "estimated_diameter_min": 3.6505220549,
            "estimated_diameter_max": 8.1628154681
        },
        "miles": {
            "estimated_diameter_min": 0.0022683285,
            "estimated_diameter_max": 0.0050721368
        },
        "feet": {
            "estimated_diameter_min": 11.9767787786,
            "estimated_diameter_max": 26.7808915004
        }
    },
    "is_potentially_hazardous_asteroid": false,
    "close_approach_data": [
        {
            "close_approach_date": "2020-01-30",
            "close_approach_date_full": "2020-Jan-30 23:21",
            "epoch_date_close_approach": 1580426460000,
            "relative_velocity": {
                "kilometers_per_second": "13.6597534922",
                "kilometers_per_hour": "49175.1125718199",
                "miles_per_hour": "30555.50258664"
            },
            "miss_distance": {
                "astronomical": "0.0040886948",
                "lunar": "1.5905022772",
                "kilometers": "611660.033160076",
                "miles": "380067.9206220088"
            },
            "orbiting_body": "Moon"
        },
        {
            "close_approach_date": "2020-01-31",
            "close_approach_date_full": "2020-Jan-31 03:51",
            "epoch_date_close_approach": 1580442660000,
            "relative_velocity": {
                "kilometers_per_second": "14.4889661312",
                "kilometers_per_hour": "52160.278072172",
                "miles_per_hour": "32410.3683387893"
            },
            "miss_distance": {
                "astronomical": "0.0021048025",
                "lunar": "0.8187681725",
                "kilometers": "314873.970770675",
                "miles": "195653.612858315"
            },
            "orbiting_body": "Earth"
        }
    ],
    "orbital_data": {
        "orbit_id": "1",
        "orbit_determination_date": "2020-02-03 15:12:06",
        "first_observation_date": "2020-02-02",
        "last_observation_date": "2020-02-03",
        "data_arc_in_days": 1,
        "observations_used": 14,
        "orbit_uncertainty": "9",
        "minimum_orbit_intersection": ".00150355",
        "jupiter_tisserand_invariant": "4.230",
        "epoch_osculation": "2458882.5",
        "eccentricity": ".5316443039396443",
        "semi_major_axis": "1.576330358417094",
        "inclination": "4.843729986247558",
        "ascending_node_longitude": "129.5660604266212",
        "orbital_period": "722.8851219060921",
        "perihelion_distance": ".7382833022375082",
        "perihelion_argument": "287.1849330835811",
        "aphelion_distance": "2.414377414596681",
        "perihelion_time": "2458832.442703554738",
        "mean_anomaly": "24.92875586203492",
        "mean_motion": ".4980044395584705",
        "equinox": "J2000",
        "orbit_class": {
            "orbit_class_type": "APO",
            "orbit_class_description": "Near-Earth asteroid orbits which cross the Earth’s orbit similar to that of 1862 Apollo",
            "orbit_class_range": "a (semi-major axis) > 1.0 AU; q (perihelion) < 1.017 AU"
        }
    },
    "is_sentry_object": false
}